{"type":"FeatureCollection","features":[{"type":"Feature","geometry":{"type":"Polygon","bbox":[-70.941305,-34.216282,-70.676628,-34.028421],"coordinates":[[[-70.846083,-34.191404],[-70.809754,-34.182548],[-70.757206,-34.189924],[-70.738028,-34.19857],[-70.721714,-34.209147],[-70.694371,-34.210239],[-70.676628,-34.216282],[-70.656367,-34.233101],[-70.645744,-34.209052],[-70.645268,-34.203985],[-70.640232,-34.199094],[-70.628356,-34.198229],[-70.620851,-34.192964],[-70.634795,-34.162933],[-70.64826,-34.157296],[-70.661406,-34.15892],[-70.684467,-34.141735],[-70.720463,-34.11291],[-70.734259,-34.10639],[-70.786115,-34.109471],[-70.804089,-34.090507],[-70.846217,-34.127204],[-70.851802,-34.143812],[-70.837399,-34.160474],[-70.846083,-34.191404]]]},"properties":{"label":"Rancagua - O'Higgins, Chile"}}]}